{
  "type": "FeatureCollection",
  "features": [
    {
      "type": "Feature",
      "properties": {
        "norad_id": 34750,
        "name": "COSMOS 2251 DEB",
        "group": "cosmos-2251-debris",
        "lat": 67.20743619434722,
        "lon": -21.88250674189517,
        "alt_km": 663.304476971095,
        "timestamp": "2025-12-13T05:42:57.967254+00:00",
        "meta_object_name": "COSMOS 2251 DEB",
        "meta_object_id": "1993-036ZU",
        "meta_epoch": "2025-12-12T02:01:08.679936",
        "meta_mean_motion": 14.61312252,
        "meta_eccentricity": 0.00388523,
        "meta_inclination": 74.1082,
        "meta_ra_of_asc_node": 202.9993,
        "meta_arg_of_pericenter": 156.3211,
        "meta_mean_anomaly": 1.8933,
        "meta_ephemeris_type": 0,
        "meta_classification_type": "U",
        "meta_norad_cat_id": 34750,
        "meta_element_set_no": 999,
        "meta_rev_at_epoch": 88221,
        "meta_bstar": 0.0016476753,
        "meta_mean_motion_dot": 8.205e-05,
        "meta_mean_motion_ddot": 0,
        "tle_line1": "1 34750U 93036ZU  25346.08412824  .00008205  00000+0  16477-2 0  9990",
        "tle_line2": "2 34750  74.1082 202.9993 0038852 156.3211   1.8933 14.61312252882214"
      },
      "geometry": {
        "type": "Point",
        "coordinates": [
          -21.88250674189517,
          67.20743619434722
        ]
      }
    },
    {
      "type": "Feature",
      "properties": {
        "norad_id": 34752,
        "name": "COSMOS 2251 DEB",
        "group": "cosmos-2251-debris",
        "lat": -41.13665819066118,
        "lon": -14.91023484552251,
        "alt_km": 606.1087364333016,
        "timestamp": "2025-12-13T05:42:57.967265+00:00",
        "meta_object_name": "COSMOS 2251 DEB",
        "meta_object_id": "1993-036ZW",
        "meta_epoch": "2025-12-12T01:05:45.538080",
        "meta_mean_motion": 14.9990229,
        "meta_eccentricity": 0.00478297,
        "meta_inclination": 74.0136,
        "meta_ra_of_asc_node": 2.0174,
        "meta_arg_of_pericenter": 130.6788,
        "meta_mean_anomaly": 229.8571,
        "meta_ephemeris_type": 0,
        "meta_classification_type": "U",
        "meta_norad_cat_id": 34752,
        "meta_element_set_no": 999,
        "meta_rev_at_epoch": 89839,
        "meta_bstar": 0.0013774782,
        "meta_mean_motion_dot": 0.0001751,
        "meta_mean_motion_ddot": 0,
        "tle_line1": "1 34752U 93036ZW  25346.04566595  .00017510  00000+0  13775-2 0  9990",
        "tle_line2": "2 34752  74.0136   2.0174 0047829 130.6788 229.8571 14.99902290898397"
      },
      "geometry": {
        "type": "Point",
        "coordinates": [
          -14.91023484552251,
          -41.13665819066118
        ]
      }
    },
    {
      "type": "Feature",
      "properties": {
        "norad_id": 34754,
        "name": "COSMOS 2251 DEB",
        "group": "cosmos-2251-debris",
        "lat": -4.07593552392521,
        "lon": 47.85049183648663,
        "alt_km": 779.6454270948034,
        "timestamp": "2025-12-13T05:42:57.967275+00:00",
        "meta_object_name": "COSMOS 2251 DEB",
        "meta_object_id": "1993-036ZY",
        "meta_epoch": "2025-12-12T02:53:28.307328",
        "meta_mean_motion": 14.4048029,
        "meta_eccentricity": 0.0029545,
        "meta_inclination": 74.0303,
        "meta_ra_of_asc_node": 228.748,
        "meta_arg_of_pericenter": 344.9646,
        "meta_mean_anomaly": 165.5068,
        "meta_ephemeris_type": 0,
        "meta_classification_type": "U",
        "meta_norad_cat_id": 34754,
        "meta_element_set_no": 999,
        "meta_rev_at_epoch": 88124,
        "meta_bstar": 0.00031921533,
        "meta_mean_motion_dot": 9.94e-06,
        "meta_mean_motion_ddot": 0,
        "tle_line1": "1 34754U 93036ZY  25346.12046652  .00000994  00000+0  31922-3 0  9991",
        "tle_line2": "2 34754  74.0303 228.7480 0029545 344.9646 165.5068 14.40480290881240"
      },
      "geometry": {
        "type": "Point",
        "coordinates": [
          47.85049183648663,
          -4.07593552392521
        ]
      }
    },
    {
      "type": "Feature",
      "properties": {
        "norad_id": 34755,
        "name": "COSMOS 2251 DEB",
        "group": "cosmos-2251-debris",
        "lat": 46.25292928764134,
        "lon": 91.69459407042969,
        "alt_km": 1369.6382850563596,
        "timestamp": "2025-12-13T05:42:57.967286+00:00",
        "meta_object_name": "COSMOS 2251 DEB",
        "meta_object_id": "1993-036ZZ",
        "meta_epoch": "2025-12-11T14:55:03.161568",
        "meta_mean_motion": 13.50554631,
        "meta_eccentricity": 0.04083101,
        "meta_inclination": 73.9258,
        "meta_ra_of_asc_node": 291.8222,
        "meta_arg_of_pericenter": 311.8419,
        "meta_mean_anomaly": 242.47,
        "meta_ephemeris_type": 0,
        "meta_classification_type": "U",
        "meta_norad_cat_id": 34755,
        "meta_element_set_no": 999,
        "meta_rev_at_epoch": 82508,
        "meta_bstar": 0.0023536952,
        "meta_mean_motion_dot": 2.517e-05,
        "meta_mean_motion_ddot": 0,
        "tle_line1": "1 34755U 93036ZZ  25345.62156437  .00002517  00000+0  23537-2 0  9994",
        "tle_line2": "2 34755  73.9258 291.8222 0408310 311.8419 242.4700 13.50554631825084"
      },
      "geometry": {
        "type": "Point",
        "coordinates": [
          91.69459407042969,
          46.25292928764134
        ]
      }
    },
    {
      "type": "Feature",
      "properties": {
        "norad_id": 34756,
        "name": "COSMOS 2251 DEB",
        "group": "cosmos-2251-debris",
        "lat": 65.51191814581797,
        "lon": 142.58801860839588,
        "alt_km": 1002.7593248937328,
        "timestamp": "2025-12-13T05:42:57.967296+00:00",
        "meta_object_name": "COSMOS 2251 DEB",
        "meta_object_id": "1993-036AAA",
        "meta_epoch": "2025-12-11T14:45:00.607104",
        "meta_mean_motion": 13.67238778,
        "meta_eccentricity": 0.03449804,
        "meta_inclination": 74.0026,
        "meta_ra_of_asc_node": 106.2197,
        "meta_arg_of_pericenter": 342.2771,
        "meta_mean_anomaly": 16.6544,
        "meta_ephemeris_type": 0,
        "meta_classification_type": "U",
        "meta_norad_cat_id": 34756,
        "meta_element_set_no": 999,
        "meta_rev_at_epoch": 83406,
        "meta_bstar": 0.0012772103,
        "meta_mean_motion_dot": 1.595e-05,
        "meta_mean_motion_ddot": 0,
        "tle_line1": "1 34756U 93036AAA 25345.61459036  .00001595  00000+0  12772-2 0  9999",
        "tle_line2": "2 34756  74.0026 106.2197 0344980 342.2771  16.6544 13.67238778834065"
      },
      "geometry": {
        "type": "Point",
        "coordinates": [
          142.58801860839588,
          65.51191814581797
        ]
      }
    },
    {
      "type": "Feature",
      "properties": {
        "norad_id": 34758,
        "name": "COSMOS 2251 DEB",
        "group": "cosmos-2251-debris",
        "lat": 11.794428541760388,
        "lon": 115.28543885781995,
        "alt_km": 1108.1303073211584,
        "timestamp": "2025-12-13T05:42:57.967307+00:00",
        "meta_object_name": "COSMOS 2251 DEB",
        "meta_object_id": "1993-036AAC",
        "meta_epoch": "2025-12-11T06:58:07.203360",
        "meta_mean_motion": 13.580618,
        "meta_eccentricity": 0.03811247,
        "meta_inclination": 74.1076,
        "meta_ra_of_asc_node": 301.8294,
        "meta_arg_of_pericenter": 65.8978,
        "meta_mean_anomaly": 298.1504,
        "meta_ephemeris_type": 0,
        "meta_classification_type": "U",
        "meta_norad_cat_id": 34758,
        "meta_element_set_no": 999,
        "meta_rev_at_epoch": 82890,
        "meta_bstar": 0.0018686561,
        "meta_mean_motion_dot": 2.154e-05,
        "meta_mean_motion_ddot": 0,
        "tle_line1": "1 34758U 93036AAC 25345.29036115  .00002154  00000+0  18687-2 0  9997",
        "tle_line2": "2 34758  74.1076 301.8294 0381124  65.8978 298.1504 13.58061800828901"
      },
      "geometry": {
        "type": "Point",
        "coordinates": [
          115.28543885781995,
          11.794428541760388
        ]
      }
    },
    {
      "type": "Feature",
      "properties": {
        "norad_id": 34760,
        "name": "COSMOS 2251 DEB",
        "group": "cosmos-2251-debris",
        "lat": 15.208258824623869,
        "lon": 117.01631897839673,
        "alt_km": 895.978024051271,
        "timestamp": "2025-12-13T05:42:57.967317+00:00",
        "meta_object_name": "COSMOS 2251 DEB",
        "meta_object_id": "1993-036AAE",
        "meta_epoch": "2025-12-11T20:57:04.029120",
        "meta_mean_motion": 14.19565488,
        "meta_eccentricity": 0.0096741,
        "meta_inclination": 74.0637,
        "meta_ra_of_asc_node": 303.9064,
        "meta_arg_of_pericenter": 356.2172,
        "meta_mean_anomaly": 33.6085,
        "meta_ephemeris_type": 0,
        "meta_classification_type": "U",
        "meta_norad_cat_id": 34760,
        "meta_element_set_no": 999,
        "meta_rev_at_epoch": 86676,
        "meta_bstar": 0.0010971,
        "meta_mean_motion_dot": 2.4e-05,
        "meta_mean_motion_ddot": 0,
        "tle_line1": "1 34760U 93036AAE 25345.87296330  .00002400  00000+0  10971-2 0  9993",
        "tle_line2": "2 34760  74.0637 303.9064 0096741 356.2172  33.6085 14.19565488866766"
      },
      "geometry": {
        "type": "Point",
        "coordinates": [
          117.01631897839673,
          15.208258824623869
        ]
      }
    }
  ]
}